{
  "type": "FeatureCollection",
  "features": [
    {
      "type": "Feature",
      "properties": {
        "norad_id": 66591,
        "name": "STARLINK-36058",
        "group": "last-30-days",
        "lat": -10.06370649952961,
        "lon": -176.3227149820897,
        "alt_km": 415.37290766881597,
        "timestamp": "2025-12-12T09:49:07.481620+00:00",
        "meta_object_name": "STARLINK-36058",
        "meta_object_id": "2025-270D",
        "meta_epoch": "2025-12-12T04:00:01.998720",
        "meta_mean_motion": 15.50585827,
        "meta_eccentricity": 0.0002337,
        "meta_inclination": 42.9996,
        "meta_ra_of_asc_node": 196.0751,
        "meta_arg_of_pericenter": 271.2604,
        "meta_mean_anomaly": 159.0642,
        "meta_ephemeris_type": 0,
        "meta_classification_type": "U",
        "meta_norad_cat_id": 66591,
        "meta_element_set_no": 999,
        "meta_rev_at_epoch": 430,
        "meta_bstar": 0.0016498,
        "meta_mean_motion_dot": 0.00097687,
        "meta_mean_motion_ddot": 0,
        "tle_line1": "1 66591U 25270D   25346.16668980  .00097687  00000+0  16498-2 0  9993",
        "tle_line2": "2 66591  42.9996 196.0751 0002337 271.2604 159.0642 15.50585827  4304"
      },
      "geometry": {
        "type": "Point",
        "coordinates": [
          -176.3227149820897,
          -10.06370649952961
        ]
      }
    },
    {
      "type": "Feature",
      "properties": {
        "norad_id": 66592,
        "name": "STARLINK-36066",
        "group": "last-30-days",
        "lat": -8.77253826924876,
        "lon": -174.88057885446673,
        "alt_km": 416.36561151602837,
        "timestamp": "2025-12-12T09:49:07.481630+00:00",
        "meta_object_name": "STARLINK-36066",
        "meta_object_id": "2025-270E",
        "meta_epoch": "2025-12-12T04:00:01.998720",
        "meta_mean_motion": 15.50915682,
        "meta_eccentricity": 0.0001763,
        "meta_inclination": 42.9997,
        "meta_ra_of_asc_node": 196.0703,
        "meta_arg_of_pericenter": 264.2995,
        "meta_mean_anomaly": 167.9245,
        "meta_ephemeris_type": 0,
        "meta_classification_type": "U",
        "meta_norad_cat_id": 66592,
        "meta_element_set_no": 999,
        "meta_rev_at_epoch": 420,
        "meta_bstar": -0.019104,
        "meta_mean_motion_dot": -0.01032511,
        "meta_mean_motion_ddot": 0,
        "tle_line1": "1 66592U 25270E   25346.16668980 -.01032511  00000+0 -19104-1 0  9998",
        "tle_line2": "2 66592  42.9997 196.0703 0001763 264.2995 167.9245 15.50915682  4202"
      },
      "geometry": {
        "type": "Point",
        "coordinates": [
          -174.88057885446673,
          -8.77253826924876
        ]
      }
    },
    {
      "type": "Feature",
      "properties": {
        "norad_id": 66593,
        "name": "STARLINK-36031",
        "group": "last-30-days",
        "lat": -7.383794260953453,
        "lon": -173.34689235644345,
        "alt_km": 415.22812388673356,
        "timestamp": "2025-12-12T09:49:07.481640+00:00",
        "meta_object_name": "STARLINK-36031",
        "meta_object_id": "2025-270F",
        "meta_epoch": "2025-12-12T04:00:01.998720",
        "meta_mean_motion": 15.50792214,
        "meta_eccentricity": 0.0001797,
        "meta_inclination": 42.9997,
        "meta_ra_of_asc_node": 196.0657,
        "meta_arg_of_pericenter": 274.9536,
        "meta_mean_anomaly": 159.2758,
        "meta_ephemeris_type": 0,
        "meta_classification_type": "U",
        "meta_norad_cat_id": 66593,
        "meta_element_set_no": 999,
        "meta_rev_at_epoch": 430,
        "meta_bstar": -0.0058276,
        "meta_mean_motion_dot": -0.00330707,
        "meta_mean_motion_ddot": 0,
        "tle_line1": "1 66593U 25270F   25346.16668980 -.00330707  00000+0 -58276-2 0  9990",
        "tle_line2": "2 66593  42.9997 196.0657 0001797 274.9536 159.2758 15.50792214  4305"
      },
      "geometry": {
        "type": "Point",
        "coordinates": [
          -173.34689235644345,
          -7.383794260953453
        ]
      }
    },
    {
      "type": "Feature",
      "properties": {
        "norad_id": 66594,
        "name": "STARLINK-36032",
        "group": "last-30-days",
        "lat": -6.185941784916083,
        "lon": -172.036899049201,
        "alt_km": 415.2471614847964,
        "timestamp": "2025-12-12T09:49:07.481653+00:00",
        "meta_object_name": "STARLINK-36032",
        "meta_object_id": "2025-270G",
        "meta_epoch": "2025-12-12T04:00:01.998720",
        "meta_mean_motion": 15.50543396,
        "meta_eccentricity": 0.000197,
        "meta_inclination": 42.9999,
        "meta_ra_of_asc_node": 196.0608,
        "meta_arg_of_pericenter": 275.6463,
        "meta_mean_anomaly": 160.4902,
        "meta_ephemeris_type": 0,
        "meta_classification_type": "U",
        "meta_norad_cat_id": 66594,
        "meta_element_set_no": 999,
        "meta_rev_at_epoch": 404,
        "meta_bstar": 0.0006725,
        "meta_mean_motion_dot": 0.00039259,
        "meta_mean_motion_ddot": 0,
        "tle_line1": "1 66594U 25270G   25346.16668980  .00039259  00000+0  67250-3 0  9990",
        "tle_line2": "2 66594  42.9999 196.0608 0001970 275.6463 160.4902 15.50543396  4045"
      },
      "geometry": {
        "type": "Point",
        "coordinates": [
          -172.036899049201,
          -6.185941784916083
        ]
      }
    },
    {
      "type": "Feature",
      "properties": {
        "norad_id": 66595,
        "name": "STARLINK-35711",
        "group": "last-30-days",
        "lat": -4.983019524093479,
        "lon": -170.7316693705923,
        "alt_km": 415.4438368467536,
        "timestamp": "2025-12-12T09:49:07.481667+00:00",
        "meta_object_name": "STARLINK-35711",
        "meta_object_id": "2025-270H",
        "meta_epoch": "2025-12-12T04:00:01.998720",
        "meta_mean_motion": 15.50525101,
        "meta_eccentricity": 0.0001173,
        "meta_inclination": 42.9997,
        "meta_ra_of_asc_node": 196.0555,
        "meta_arg_of_pericenter": 261.7315,
        "meta_mean_anomaly": 176.1924,
        "meta_ephemeris_type": 0,
        "meta_classification_type": "U",
        "meta_norad_cat_id": 66595,
        "meta_element_set_no": 999,
        "meta_rev_at_epoch": 441,
        "meta_bstar": 0.0015916,
        "meta_mean_motion_dot": 0.00093975,
        "meta_mean_motion_ddot": 0,
        "tle_line1": "1 66595U 25270H   25346.16668980  .00093975  00000+0  15916-2 0  9997",
        "tle_line2": "2 66595  42.9997 196.0555 0001173 261.7315 176.1924 15.50525101  4415"
      },
      "geometry": {
        "type": "Point",
        "coordinates": [
          -170.7316693705923,
          -4.983019524093479
        ]
      }
    },
    {
      "type": "Feature",
      "properties": {
        "norad_id": 66596,
        "name": "STARLINK-35811",
        "group": "last-30-days",
        "lat": -8.2013061346488,
        "lon": -174.2477440912143,
        "alt_km": 427.9003659453974,
        "timestamp": "2025-12-12T09:49:07.481678+00:00",
        "meta_object_name": "STARLINK-35811",
        "meta_object_id": "2025-270J",
        "meta_epoch": "2025-12-12T04:00:01.998720",
        "meta_mean_motion": 15.47529413,
        "meta_eccentricity": 0.0001728,
        "meta_inclination": 42.9995,
        "meta_ra_of_asc_node": 196.0605,
        "meta_arg_of_pericenter": 264.3988,
        "meta_mean_anomaly": 171.874,
        "meta_ephemeris_type": 0,
        "meta_classification_type": "U",
        "meta_norad_cat_id": 66596,
        "meta_element_set_no": 999,
        "meta_rev_at_epoch": 441,
        "meta_bstar": -0.043243,
        "meta_mean_motion_dot": -0.02030037,
        "meta_mean_motion_ddot": 0,
        "tle_line1": "1 66596U 25270J   25346.16668980 -.02030037  00000+0 -43243-1 0  9995",
        "tle_line2": "2 66596  42.9995 196.0605 0001728 264.3988 171.8740 15.47529413  4415"
      },
      "geometry": {
        "type": "Point",
        "coordinates": [
          -174.2477440912143,
          -8.2013061346488
        ]
      }
    },
    {
      "type": "Feature",
      "properties": {
        "norad_id": 66597,
        "name": "STARLINK-35820",
        "group": "last-30-days",
        "lat": -2.279024327337862,
        "lon": -167.82009101274085,
        "alt_km": 414.8348579092735,
        "timestamp": "2025-12-12T09:49:07.481688+00:00",
        "meta_object_name": "STARLINK-35820",
        "meta_object_id": "2025-270K",
        "meta_epoch": "2025-12-12T04:00:01.998720",
        "meta_mean_motion": 15.50551687,
        "meta_eccentricity": 0.0001927,
        "meta_inclination": 42.9996,
        "meta_ra_of_asc_node": 196.046,
        "meta_arg_of_pericenter": 276.5208,
        "meta_mean_anomaly": 165.355,
        "meta_ephemeris_type": 0,
        "meta_classification_type": "U",
        "meta_norad_cat_id": 66597,
        "meta_element_set_no": 999,
        "meta_rev_at_epoch": 441,
        "meta_bstar": 0.0010025,
        "meta_mean_motion_dot": 0.00058855,
        "meta_mean_motion_ddot": 0,
        "tle_line1": "1 66597U 25270K   25346.16668980  .00058855  00000+0  10025-2 0  9993",
        "tle_line2": "2 66597  42.9996 196.0460 0001927 276.5208 165.3550 15.50551687  4416"
      },
      "geometry": {
        "type": "Point",
        "coordinates": [
          -167.82009101274085,
          -2.279024327337862
        ]
      }
    }
  ]
}